IRIDIUM 171             
1 43929U 19002H   24348.61794956  .00000401  00000+0  13595-3 0  9997
2 43929  86.3997 223.8652 0001704  94.3785 265.7605 14.34218848310049
IRIDIUM 170             
1 43930U 19002J   24348.42286007  .00000407  00000+0  60706-4 0  9994
2 43930  86.6119 223.7344 0002162  83.7447 276.4016 14.72245481318221
IRIDIUM 167             
1 43931U 19002K   24348.68136193  .00000399  00000+0  13550-3 0  9997
2 43931  86.3987 223.6110 0001608  82.3391 277.7987 14.34214113310059
IRIDIUM 181             
1 56726U 23068S   24348.77542713  .00000736  00000+0  21169-3 0  9999
2 56726  86.6823 285.8332 0002012  95.4980 264.6451 14.43552288 83047
IRIDIUM 174             
1 56728U 23068U   24348.56687381  .00002275  00000+0  29598-3 0  9993
2 56728  86.1997 230.2889 0002140  93.7985 266.3481 14.80226693 84913
IRIDIUM 178             
1 56729U 23068V   24349.16986402  .00002479  00000+0  32291-3 0  9997
2 56729  86.5784 255.9823 0002218  99.9929 260.1543 14.80220153 85003
